{
  "norad_id": 28117,
  "name": "UFO 11 (USA 174)",
  "history": [
    {
      "epoch": "2026-03-28T21:17:38.519232Z",
      "apogee_km": 35799.610977389115,
      "perigee_km": 35773.308701880545,
      "latitude_deg": -1.0606261564327726,
      "longitude_deg": 75.33722871150252,
      "height_km": 35794.517404675076,
      "semi_major_axis_km": 42164.59683963483,
      "eccentricity": 0.0003119,
      "inclination_deg": 8.886,
      "raan_deg": 34.2115,
      "arg_perigee_deg": 316.2968,
      "mean_anomaly_deg": 230.627,
      "mean_motion_rev_day": 1.00272267
    },
    {
      "epoch": "2026-03-29T20:04:51.609216Z",
      "apogee_km": 35799.529171983995,
      "perigee_km": 35773.39555329903,
      "latitude_deg": 1.589680666912208,
      "longitude_deg": 75.54840787211167,
      "height_km": 35796.841556926905,
      "semi_major_axis_km": 42164.599362641515,
      "eccentricity": 0.0003099,
      "inclination_deg": 8.8876,
      "raan_deg": 34.2069,
      "arg_perigee_deg": 316.9265,
      "mean_anomaly_deg": 212.7428,
      "mean_motion_rev_day": 1.00272258
    },
    {
      "epoch": "2026-03-29T20:04:51.610080Z",
      "apogee_km": 35799.53001527599,
      "perigee_km": 35773.39471000704,
      "latitude_deg": 1.5896808554048036,
      "longitude_deg": 75.54840303490799,
      "height_km": 35796.8422704616,
      "semi_major_axis_km": 42164.599362641515,
      "eccentricity": 0.00030992,
      "inclination_deg": 8.8876,
      "raan_deg": 34.2069,
      "arg_perigee_deg": 316.9265,
      "mean_anomaly_deg": 212.7428,
      "mean_motion_rev_day": 1.00272258
    },
    {
      "epoch": "2026-03-30T09:55:33.436416Z",
      "apogee_km": 35799.47111794143,
      "perigee_km": 35773.4597746923,
      "latitude_deg": 2.724870405072844,
      "longitude_deg": 75.26961234995439,
      "height_km": 35779.21993877168,
      "semi_major_axis_km": 42164.60244631687,
      "eccentricity": 0.00030845,
      "inclination_deg": 8.8886,
      "raan_deg": 34.2042,
      "arg_perigee_deg": 317.4086,
      "mean_anomaly_deg": 60.5063,
      "mean_motion_rev_day": 1.00272247
    },
    {
      "epoch": "2026-03-30T20:11:44.296224Z",
      "apogee_km": 35799.455936654056,
      "perigee_km": 35773.476637984604,
      "latitude_deg": 1.174781438555218,
      "longitude_deg": 75.51538071373915,
      "height_km": 35796.579815352816,
      "semi_major_axis_km": 42164.60328731933,
      "eccentricity": 0.00030807,
      "inclination_deg": 8.8893,
      "raan_deg": 34.2022,
      "arg_perigee_deg": 317.6486,
      "mean_anomaly_deg": 214.7354,
      "mean_motion_rev_day": 1.00272244
    },
    {
      "epoch": "2026-03-31T20:09:15.607008Z",
      "apogee_km": 35799.38326824656,
      "perigee_km": 35773.55323107061,
      "latitude_deg": 1.1167324326050847,
      "longitude_deg": 75.51007312588075,
      "height_km": 35796.57053798055,
      "semi_major_axis_km": 42164.60524965858,
      "eccentricity": 0.0003063,
      "inclination_deg": 8.8911,
      "raan_deg": 34.1977,
      "arg_perigee_deg": 318.3383,
      "mean_anomaly_deg": 214.4151,
      "mean_motion_rev_day": 1.00272237
    },
    {
      "epoch": "2026-04-01T19:43:38.690112Z",
      "apogee_km": 35799.34701278401,
      "perigee_km": 35773.584440518025,
      "latitude_deg": 1.9405486217107701,
      "longitude_deg": 75.57346207023899,
      "height_km": 35797.21272729926,
      "semi_major_axis_km": 42164.60272665102,
      "eccentricity": 0.0003055,
      "inclination_deg": 8.8928,
      "raan_deg": 34.1937,
      "arg_perigee_deg": 319.4805,
      "mean_anomaly_deg": 207.842,
      "mean_motion_rev_day": 1.00272246
    },
    {
      "epoch": "2026-04-02T09:48:10.825632Z",
      "apogee_km": 35799.31509874594,
      "perigee_km": 35773.624203913285,
      "latitude_deg": 2.8952080202922894,
      "longitude_deg": 75.25339192000949,
      "height_km": 35778.98681176256,
      "semi_major_axis_km": 42164.60665132962,
      "eccentricity": 0.00030465,
      "inclination_deg": 8.8938,
      "raan_deg": 34.1911,
      "arg_perigee_deg": 320.0237,
      "mean_anomaly_deg": 59.0131,
      "mean_motion_rev_day": 1.00272232
    },
    {
      "epoch": "2026-04-02T21:47:01.329792Z",
      "apogee_km": 35799.29232579093,
      "perigee_km": 35773.65034087909,
      "latitude_deg": -2.918363630545483,
      "longitude_deg": 75.19690207785862,
      "height_km": 35793.08815532882,
      "semi_major_axis_km": 42164.60833333501,
      "eccentricity": 0.00030407,
      "inclination_deg": 8.8946,
      "raan_deg": 34.1889,
      "arg_perigee_deg": 320.2285,
      "mean_anomaly_deg": 239.0129,
      "mean_motion_rev_day": 1.00272226
    },
    {
      "epoch": "2026-04-03T20:01:58.258848Z",
      "apogee_km": 35799.242141768256,
      "perigee_km": 35773.70725292434,
      "latitude_deg": 0.9371718782874732,
      "longitude_deg": 75.49249563486971,
      "height_km": 35796.65062457053,
      "semi_major_axis_km": 42164.6116973463,
      "eccentricity": 0.0003028,
      "inclination_deg": 8.8962,
      "raan_deg": 34.1849,
      "arg_perigee_deg": 320.9113,
      "mean_anomaly_deg": 212.9848,
      "mean_motion_rev_day": 1.00272214
    },
    {
      "epoch": "2026-04-03T21:44:33.443232Z",
      "apogee_km": 35799.25057265609,
      "perigee_km": 35773.700504042354,
      "latitude_deg": -2.9748621047898505,
      "longitude_deg": 75.19158823843267,
      "height_km": 35793.142169031285,
      "semi_major_axis_km": 42164.612538349225,
      "eccentricity": 0.00030298,
      "inclination_deg": 8.8963,
      "raan_deg": 34.1846,
      "arg_perigee_deg": 320.9375,
      "mean_anomaly_deg": 238.6757,
      "mean_motion_rev_day": 1.00272211
    },
    {
      "epoch": "2026-04-05T07:35:51.768096Z",
      "apogee_km": 35799.21894105626,
      "perigee_km": 35773.738863666455,
      "latitude_deg": -1.7055266076126723,
      "longitude_deg": 75.5759908949055,
      "height_km": 35774.779259099734,
      "semi_major_axis_km": 42164.61590236136,
      "eccentricity": 0.00030215,
      "inclination_deg": 8.8987,
      "raan_deg": 34.1785,
      "arg_perigee_deg": 322.2801,
      "mean_anomaly_deg": 26.5556,
      "mean_motion_rev_day": 1.00272199
    },
    {
      "epoch": "2026-04-05T19:56:56.294304Z",
      "apogee_km": 35799.166796123835,
      "perigee_km": 35773.79212993637,
      "latitude_deg": 0.8259650276502836,
      "longitude_deg": 75.48179621034689,
      "height_km": 35796.70709035574,
      "semi_major_axis_km": 42164.61646303011,
      "eccentricity": 0.0003009,
      "inclination_deg": 8.8996,
      "raan_deg": 34.1763,
      "arg_perigee_deg": 322.577,
      "mean_anomaly_deg": 212.0369,
      "mean_motion_rev_day": 1.00272197
    },
    {
      "epoch": "2026-04-05T21:39:33.041664Z",
      "apogee_km": 35799.17902182673,
      "perigee_km": 35773.78158623981,
      "latitude_deg": -3.0836077477531245,
      "longitude_deg": 75.18213083864609,
      "height_km": 35793.29889397477,
      "semi_major_axis_km": 42164.61730403327,
      "eccentricity": 0.00030117,
      "inclination_deg": 8.8997,
      "raan_deg": 34.176,
      "arg_perigee_deg": 322.6065,
      "mean_anomaly_deg": 237.731,
      "mean_motion_rev_day": 1.00272194
    },
    {
      "epoch": "2026-04-07T14:16:33.490848Z",
      "apogee_km": 35799.140635732125,
      "perigee_km": 35773.83342838808,
      "latitude_deg": 8.895868526704927,
      "longitude_deg": 75.47422975569485,
      "height_km": 35792.94326194912,
      "semi_major_axis_km": 42164.62403206011,
      "eccentricity": 0.0003001,
      "inclination_deg": 8.9026,
      "raan_deg": 34.1685,
      "arg_perigee_deg": 324.3408,
      "mean_anomaly_deg": 126.9229,
      "mean_motion_rev_day": 1.0027217
    }
  ]
}